{"fetched_at":"2026-03-29T16:36:15Z","count":15609,"tles":[{"name":"STARLINK-2109","line1":"1 47388U 21005AR  26087.89709843 -.00000108  00000+0  10994-4 0  9995","line2":"2 47388  53.0757 335.2194 0001572  91.7380 268.3791 15.11310855285932","category":"Starlink"}]}