{
  "norad_id": 47388,
  "name": "STARLINK-2109",
  "history": [
    {
      "epoch": "2026-03-28T21:31:49.304352Z",
      "apogee_km": 533.2875703453346,
      "perigee_km": 531.1149599947648,
      "latitude_deg": -3.500081348186913e-05,
      "longitude_deg": -174.04701744431966,
      "height_km": 533.1154965584651,
      "semi_major_axis_km": 6910.338265170049,
      "eccentricity": 0.0001572,
      "inclination_deg": 53.0757,
      "raan_deg": 335.2194,
      "arg_perigee_deg": 91.738,
      "mean_anomaly_deg": 268.3791,
      "mean_motion_rev_day": 15.11310855
    }
  ]
}